NORAD_CAT_ID,OBJECT_NAME,OBJECT_TYPE,EPOCH,MEAN_MOTION,ECCENTRICITY,INCLINATION,RA_OF_ASC_NODE,ARG_OF_PERICENTER,MEAN_ANOMALY,BSTAR,MEAN_MOTION_DOT,MEAN_MOTION_DDOT,TLE_LINE0,TLE_LINE1,TLE_LINE2,SEMIMAJOR_AXIS,PERIOD,APOGEE,PERIGEE,DECAYED
53833.0,STARLINK-4771,PAYLOAD,2024-02-29 07:41:26,15.08850234,0.0001382,53.2182,23.1439,96.9539,263.161,0.00028997,4.331e-05,0.0,0 STARLINK-4771,1 53833U 22114R   24060.32044966  .00004331  00000-0  28997-3 0  9997,2 53833  53.2182  23.1439 0001382  96.9539 263.1610 15.08850234 80678,6917.849,95.437,540.67,538.758,0.0
53833.0,STARLINK-4771,PAYLOAD,2024-02-29 14:02:59,15.08844552,0.0001297,53.2178,21.9532,86.2447,273.8694,0.00021851,3.192e-05,0.0,0 STARLINK-4771,1 53833U 22114R   24060.58541106  .00003192  00000-0  21851-3 0  9999,2 53833  53.2178  21.9532 0001297  86.2447 273.8694 15.08844552 81259,6917.866,95.437,540.629,538.834,0.0
53833.0,STARLINK-4771,PAYLOAD,2024-03-01 04:21:28,15.08839237,0.0001369,53.2184,19.2814,99.5143,260.6004,5.1748e-05,5.36e-06,0.0,0 STARLINK-4771,1 53833U 22114R   24061.18157475  .00000536  00000-0  51748-4 0  9996,2 53833  53.2184  19.2814 0001369  99.5143 260.6004 15.08839237 80802,6917.883,95.438,540.695,538.801,0.0
53833.0,STARLINK-4771,PAYLOAD,2024-03-01 13:53:46,15.0884333,0.0001358,53.2188,17.4971,96.576,263.5387,0.00015474,2.176e-05,0.0,0 STARLINK-4771,1 53833U 22114R   24061.57901384  .00002176  00000-0  15474-3 0  9992,2 53833  53.2188  17.4971 0001358  96.5760 263.5387 15.08843330 81402,6917.87,95.437,540.675,538.796,0.0
53833.0,STARLINK-4771,PAYLOAD,2024-03-02 04:12:14,15.08847541,0.0001444,53.2189,14.8213,100.5246,259.5909,0.00021848,3.192e-05,0.0,0 STARLINK-4771,1 53833U 22114R   24062.17517215  .00003192  00000-0  21848-3 0  9996,2 53833  53.2189  14.8213 0001444 100.5246 259.5909 15.08847541 81496,6917.857,95.437,540.721,538.723,0.0
53833.0,STARLINK-4771,PAYLOAD,2024-03-03 04:03:01,15.08846529,0.0001508,53.2184,10.3567,97.8616,262.2548,7.9704e-05,9.81e-06,0.0,0 STARLINK-4771,1 53833U 22114R   24063.16877211  .00000981  00000-0  79704-4 0  9999,2 53833  53.2184  10.3567 0001508  97.8616 262.2548 15.08846529 81107,6917.86,95.437,540.769,538.682,0.0
53833.0,STARLINK-4771,PAYLOAD,2024-03-03 05:38:25,15.08845765,0.0001527,53.2184,10.059,87.1372,272.9795,0.0001886,2.715e-05,0.0,0 STARLINK-4771,1 53833U 22114R   24063.23501321  .00002715  00000-0  18860-3 0  9995,2 53833  53.2184  10.0590 0001527  87.1372 272.9795 15.08845765 81655,6917.863,95.437,540.784,538.671,0.0
53833.0,STARLINK-4771,PAYLOAD,2024-03-04 05:29:11,15.08856294,0.0002049,53.2208,5.5892,84.2985,275.8241,0.00030168,4.518e-05,0.0,0 STARLINK-4771,1 53833U 22114R   24064.22860752  .00004518  00000-0  30168-3 0  9999,2 53833  53.2208   5.5892 0002049  84.2985 275.8241 15.08856294 81268,6917.831,95.437,541.113,538.278,0.0
53833.0,STARLINK-4771,PAYLOAD,2024-03-04 13:26:08,15.08838539,0.0002074,53.2178,4.1133,84.244,275.8788,2.3663e-05,8.8e-07,0.0,0 STARLINK-4771,1 53833U 22114R   24064.55981549  .00000088  00000-0  23663-4 0  9994,2 53833  53.2178   4.1133 0002074  84.2440 275.8788 15.08838539 81315,6917.885,95.438,541.185,538.315,0.0
53833.0,STARLINK-4771,PAYLOAD,2024-03-05 05:19:58,15.08844453,0.0001537,53.2181,1.1359,101.217,258.8995,0.00013329,1.834e-05,0.0,0 STARLINK-4771,1 53833U 22114R   24065.22221050  .00001834  00000-0  13329-3 0  9990,2 53833  53.2181   1.1359 0001537 101.2170 258.8995 15.08844453 81952,6917.867,95.437,540.795,538.669,0.0
53833.0,STARLINK-4771,PAYLOAD,2024-03-06 02:00:00,15.0883544,0.0001664,53.2193,357.2712,108.0317,252.0856,-5.9685e-05,-1.238e-05,0.0,0 STARLINK-4771,1 53833U 22114R   24066.08333786 -.00001238  00000-0 -59685-4 0  9991,2 53833  53.2193 357.2712 0001664 108.0317 252.0856 15.08835440 81545,6917.894,95.438,540.91,538.608,0.0
53833.0,STARLINK-4771,PAYLOAD,2024-03-06 05:10:46,15.08835765,0.000169,53.2196,356.676,108.5691,251.5484,-1.0505e-05,-4.55e-06,0.0,0 STARLINK-4771,1 53833U 22114R   24066.21581848 -.00000455  00000-0 -10505-4 0  9998,2 53833  53.2196 356.6760 0001690 108.5691 251.5484 15.08835765 82107,6917.893,95.438,540.927,538.589,0.0
53833.0,STARLINK-4771,PAYLOAD,2024-03-07 01:50:50,15.08746914,0.0001086,53.2195,352.8105,90.8362,269.2754,-0.001582,-0.00025313,0.0,0 STARLINK-4771,1 53833U 22114R   24067.07697606 -.00025313  00000-0 -15820-2 0  9996,2 53833  53.2195 352.8105 0001086  90.8362 269.2754 15.08746914 81690,6918.165,95.443,540.781,539.279,0.0
53833.0,STARLINK-4771,PAYLOAD,2024-03-07 11:23:19,15.0856144,0.0001746,53.2195,351.0311,76.6754,283.4433,-0.0044062,-0.00069212,0.0,0 STARLINK-4771,1 53833U 22114R   24067.47453379 -.00069212  00000-0 -44062-2 0  9993,2 53833  53.2195 351.0311 0001746  76.6754 283.4433 15.08561440 82298,6918.732,95.455,541.805,539.389,0.0
53833.0,STARLINK-4771,PAYLOAD,2024-03-08 03:17:36,15.08262438,0.00012,53.2184,348.0616,105.5361,254.5763,-0.0070035,-0.00108351,0.0,0 STARLINK-4771,1 53833U 22114R   24068.13722780 -.00108351  00000-0 -70035-2 0  9999,2 53833  53.2184 348.0616 0001200 105.5361 254.5763 15.08262438 81852,6919.646,95.474,542.342,540.681,0.0
53833.0,STARLINK-4771,PAYLOAD,2024-03-08 11:14:44,15.08223541,8.56e-05,53.2181,346.5747,113.8037,246.3045,-0.0054682,-0.00084848,0.0,0 STARLINK-4771,1 53833U 22114R   24068.46857311 -.00084848  00000-0 -54682-2 0  9998,2 53833  53.2181 346.5747 0000856 113.8037 246.3045 15.08223541 82445,6919.765,95.477,542.223,541.038,0.0
53833.0,STARLINK-4771,PAYLOAD,2024-03-08 19:11:54,15.08175284,0.0001156,53.2179,345.0885,83.3663,276.746,-0.0043179,-0.00067138,0.0,0 STARLINK-4771,1 53833U 22114R   24068.79993736 -.00067138  00000-0 -43179-2 0  9998,2 53833  53.2179 345.0885 0001156  83.3663 276.7460 15.08175284 82492,6919.913,95.48,542.578,540.978,0.0
53833.0,STARLINK-4771,PAYLOAD,2024-03-09 04:44:20,15.08398809,7.84e-05,53.2178,343.3045,102.3617,257.7463,0.0023086,0.00036201,0.0,0 STARLINK-4771,1 53833U 22114R   24069.19745761  .00036201  00000-0  23086-2 0  9996,2 53833  53.2178 343.3045 0000784 102.3617 257.7463 15.08398809 82017,6919.229,95.465,541.637,540.552,0.0
53833.0,STARLINK-4771,PAYLOAD,2024-03-09 11:05:56,15.0850896,6.32e-05,53.2175,342.115,105.1187,254.9875,0.0053127,0.00084509,0.0,0 STARLINK-4771,1 53833U 22114R   24069.46246453  .00084509  00000-0  53127-2 0  9993,2 53833  53.2175 342.1150 0000632 105.1187 254.9875 15.08508960 82054,6918.892,95.458,541.195,540.32,0.0
53833.0,STARLINK-4771,PAYLOAD,2024-03-10 01:24:33,15.08630128,0.0001038,53.2173,339.4397,83.5429,276.5681,0.0067041,0.00107419,0.0,0 STARLINK-4771,1 53833U 22114R   24070.05871623  .00107419  00000-0  67041-2 0  9999,2 53833  53.2173 339.4397 0001038  83.5429 276.5681 15.08630128 82140,6918.522,95.451,541.105,539.669,0.0
53833.0,STARLINK-4771,PAYLOAD,2024-03-10 10:56:54,15.08682094,4.82e-05,53.2172,337.655,112.2985,247.8058,0.0049997,0.00079838,0.0,0 STARLINK-4771,1 53833U 22114R   24070.45618112  .00079838  00000-0  49997-2 0  9998,2 53833  53.2172 337.6550 0000482 112.2985 247.8058 15.08682094 82743,6918.363,95.448,540.562,539.895,0.0
53833.0,STARLINK-4771,PAYLOAD,2024-03-10 17:18:26,15.08727251,7.62e-05,53.2172,336.467,92.751,267.3569,0.0040226,0.00064116,0.0,0 STARLINK-4771,1 53833U 22114R   24070.72114336  .00064116  00000-0  40226-2 0  9996,2 53833  53.2172 336.4670 0000762  92.7510 267.3569 15.08727251 82244,6918.225,95.445,540.617,539.563,0.0
53833.0,STARLINK-4771,PAYLOAD,2024-03-10 22:04:35,15.08759523,0.0001247,53.2172,335.5751,83.6518,276.4616,0.003146,0.00050025,0.0,0 STARLINK-4771,1 53833U 22114R   24070.91985827  .00050025  00000-0  31460-2 0  9992,2 53833  53.2172 335.5751 0001247  83.6518 276.4616 15.08759523 82814,6918.126,95.443,540.854,539.129,0.0
53833.0,STARLINK-4771,PAYLOAD,2024-03-11 01:15:21,15.08788306,0.0001185,53.2167,334.9804,86.114,273.9988,0.0023331,0.00036986,0.0,0 STARLINK-4771,1 53833U 22114R   24071.05232727  .00036986  00000-0  23331-2 0  9990,2 53833  53.2167 334.9804 0001185  86.1140 273.9988 15.08788306 82297,6918.038,95.441,540.723,539.084,0.0
53833.0,STARLINK-4771,PAYLOAD,2024-03-11 10:47:39,15.08810143,0.0001051,53.2171,333.1944,83.0246,277.0866,0.00089084,0.00013907,0.0,0 STARLINK-4771,1 53833U 22114R   24071.44975867  .00013907  00000-0  89084-3 0  9998,2 53833  53.2171 333.1944 0001051  83.0246 277.0866 15.08810143 82355,6917.972,95.439,540.564,539.11,0.0
53833.0,STARLINK-4771,PAYLOAD,2024-03-11 17:09:11,15.0882229,9.79e-05,53.2175,332.0041,89.4302,270.6802,0.00033425,5.033e-05,0.0,0 STARLINK-4771,1 53833U 22114R   24071.71471322  .00005033  00000-0  33425-3 0  9994,2 53833  53.2175 332.0041 0000979  89.4302 270.6802 15.08822290 82395,6917.935,95.439,540.477,539.122,0.0
53833.0,STARLINK-4771,PAYLOAD,2024-03-11 23:30:43,15.08838077,0.0001267,53.2153,330.8194,71.1745,288.9384,0.00021837,3.189e-05,0.0,0 STARLINK-4771,1 53833U 22114R   24071.97966673  .00003189  00000-0  21837-3 0  9994,2 53833  53.2153 330.8194 0001267  71.1745 288.9384 15.08838077 82438,6917.886,95.438,540.628,538.875,0.0
53833.0,STARLINK-4771,PAYLOAD,2024-03-12 23:21:29,15.08846672,0.0001394,53.2169,326.3557,94.332,265.7832,0.00019292,2.784e-05,0.0,0 STARLINK-4771,1 53833U 22114R   24072.97326327  .00002784  00000-0  19292-3 0  9993,2 53833  53.2169 326.3557 0001394  94.3320 265.7832 15.08846672 83123,6917.86,95.437,540.689,538.761,0.0
53833.0,STARLINK-4771,PAYLOAD,2024-03-13 02:32:16,15.08850017,0.0001352,53.2164,325.7597,93.2776,266.8371,0.00025896,3.837e-05,0.0,0 STARLINK-4771,1 53833U 22114R   24073.10574165  .00003837  00000-0  25896-3 0  9991,2 53833  53.2164 325.7597 0001352  93.2776 266.8371 15.08850017 82602,6917.85,95.437,540.65,538.779,0.0
53833.0,STARLINK-4771,PAYLOAD,2024-03-13 21:36:53,15.08846582,0.0001517,53.2168,322.1873,96.9335,263.183,2.0906e-05,4.5e-07,0.0,0 STARLINK-4771,1 53833U 22114R   24073.90062059  .00000045  00000-0  20906-4 0  9999,2 53833  53.2168 322.1873 0001517  96.9335 263.1830 15.08846582 82723,6917.86,95.437,540.775,538.676,0.0
